[{"OBJECT_NAME":"OBJECT H","OBJECT_ID":"2024-205H","EPOCH":"2026-03-09T23:10:36.271776","MEAN_MOTION":15.29110994,"ECCENTRICITY":0.00105089,"INCLINATION":97.4168,"RA_OF_ASC_NODE":147.1265,"ARG_OF_PERICENTER":38.7838,"MEAN_ANOMALY":321.4154,"EPHEMERIS_TYPE":0,"CLASSIFICATION_TYPE":"U","NORAD_CAT_ID":61901,"ELEMENT_SET_NO":999,"REV_AT_EPOCH":7354,"BSTAR":0.00059497566,"MEAN_MOTION_DOT":0.00016783,"MEAN_MOTION_DDOT":0},{"OBJECT_NAME":"STARLINK-36540","OBJECT_ID":"2026-012U","EPOCH":"2026-03-09T09:32:17.312640","MEAN_MOTION":15.27578005,"ECCENTRICITY":9.935e-5,"INCLINATION":42.9903,"RA_OF_ASC_NODE":316.3747,"ARG_OF_PERICENTER":107.9726,"MEAN_ANOMALY":252.1234,"EPHEMERIS_TYPE":0,"CLASSIFICATION_TYPE":"U","NORAD_CAT_ID":67511,"ELEMENT_SET_NO":999,"REV_AT_EPOCH":771,"BSTAR":0.0010815292,"MEAN_MOTION_DOT":0.00029617,"MEAN_MOTION_DDOT":0}]
